{"type": "FeatureCollection", "features": [{"type": "Feature", "properties": {"name": "South Lhonak Lake, pre-breach outline", "source": "Sentinel-2 L2A scenes 2022-10-14, 2022-10-16, 2022-10-19", "area_km2": 1.597}, "geometry": {"type": "MultiPolygon", "coordinates": [[[[88.20881168271865, 27.91649492694031], [88.20881168271865, 27.916405095411896], [88.20872185119023, 27.916405095411896], [88.20872185119023, 27.916315263883487], [88.20863201966182, 27.916315263883487], [88.20863201966182, 27.916225432355073], [88.2085421881334, 27.916225432355073], [88.2085421881334, 27.91613560082666], [88.208452356605, 27.91613560082666], [88.208452356605, 27.915955937769837], [88.20827269354817, 27.915955937769837], [88.20827269354817, 27.915866106241424], [88.20818286201975, 27.915866106241424], [88.20818286201975, 27.915955937769837], [88.20800319896294, 27.915955937769837], [88.20800319896294, 27.91604576929825], [88.20791336743453, 27.91604576929825], [88.20791336743453, 27.91613560082666], [88.20782353590612, 27.91613560082666], [88.20782353590612, 27.91604576929825], [88.20764387284929, 27.91604576929825], [88.20764387284929, 27.915955937769837], [88.20674555756517, 27.915955937769837], [88.20674555756517, 27.915866106241424], [88.20665572603676, 27.915866106241424], [88.20665572603676, 27.915776274713014], [88.20647606297993, 27.915776274713014], [88.20647606297993, 27.9156864431846], [88.2054879161674, 27.9156864431846], [88.2054879161674, 27.91559661165619], [88.20521842158216, 27.91559661165619], [88.20521842158216, 27.915506780127778], [88.20503875852535, 27.915506780127778], [88.20503875852535, 27.915416948599365], [88.2046794324117, 27.915416948599365], [88.2046794324117, 27.915327117070955], [88.20449976935487, 27.915327117070955], [88.20449976935487, 27.915237285542542], [88.20440993782645, 27.915237285542542], [88.20440993782645, 27.915327117070955], [88.20423027476963, 27.915327117070955], [88.20423027476963, 27.915416948599365], [88.2025234757298, 27.915416948599365], [88.2025234757298, 27.915506780127778], [88.20234381267298, 27.915506780127778], [88.20234381267298, 27.91559661165619], [88.20225398114457, 27.91559661165619], [88.20225398114457, 27.9156864431846], [88.20108617127522, 27.9156864431846], [88.20108617127522, 27.91559661165619], [88.20099633974681, 27.91559661165619], [88.20099633974681, 27.915506780127778], [88.20081667668998, 27.915506780127778], [88.20081667668998, 27.915416948599365], [88.19991836140586, 27.915416948599365], [88.19991836140586, 27.915506780127778], [88.19973869834904, 27.915506780127778], [88.19973869834904, 27.91559661165619], [88.19964886682062, 27.91559661165619], [88.19964886682062, 27.915506780127778], [88.19955903529221, 27.915506780127778], [88.19955903529221, 27.915416948599365], [88.19937937223538, 27.915416948599365], [88.19937937223538, 27.915327117070955], [88.19928954070697, 27.915327117070955], [88.19928954070697, 27.915237285542542], [88.19910987765016, 27.915237285542542], [88.19910987765016, 27.91514745401413], [88.19839122542285, 27.91514745401413], [88.19839122542285, 27.915237285542542], [88.19821156236604, 27.915237285542542], [88.19821156236604, 27.915327117070955], [88.19812173083763, 27.915327117070955], [88.19812173083763, 27.915416948599365], [88.19803189930921, 27.915416948599365], [88.19803189930921, 27.915327117070955], [88.1979420677808, 27.915327117070955], [88.1979420677808, 27.915237285542542], [88.19776240472397, 27.915237285542542], [88.19776240472397, 27.91514745401413], [88.1971335840251, 27.91514745401413], [88.1971335840251, 27.91505762248572], [88.19704375249668, 27.91505762248572], [88.19704375249668, 27.91514745401413], [88.19686408943986, 27.91514745401413], [88.19686408943986, 27.915327117070955], [88.19677425791144, 27.915327117070955], [88.19677425791144, 27.915416948599365], [88.19686408943986, 27.915416948599365], [88.19686408943986, 27.915506780127778], [88.19677425791144, 27.915506780127778], [88.19677425791144, 27.91559661165619], [88.1965047633262, 27.91559661165619], [88.1965047633262, 27.9156864431846], [88.19632510026938, 27.9156864431846], [88.19632510026938, 27.91559661165619], [88.1956962795705, 27.91559661165619], [88.1956962795705, 27.915506780127778], [88.1948877958148, 27.915506780127778], [88.1948877958148, 27.915416948599365], [88.19443863817273, 27.915416948599365], [88.19443863817273, 27.915327117070955], [88.19434880664431, 27.915327117070955], [88.19434880664431, 27.915237285542542], [88.1941691435875, 27.915237285542542], [88.1941691435875, 27.91514745401413], [88.19371998594544, 27.91514745401413], [88.19371998594544, 27.915237285542542], [88.19309116524656, 27.915237285542542], [88.19309116524656, 27.91514745401413], [88.19291150218973, 27.91514745401413], [88.19291150218973, 27.915237285542542], [88.19201318690561, 27.915237285542542], [88.19201318690561, 27.91514745401413], [88.19183352384879, 27.91514745401413], [88.19183352384879, 27.91505762248572], [88.19039621939419, 27.91505762248572], [88.19039621939419, 27.91514745401413], [88.1896775671669, 27.91514745401413], [88.1896775671669, 27.91505762248572], [88.18958773563848, 27.91505762248572], [88.18958773563848, 27.914967790957306], [88.18940807258166, 27.914967790957306], [88.18940807258166, 27.914877959428892], [88.18850975729754, 27.914877959428892], [88.18850975729754, 27.914788127900483], [88.1874317789566, 27.914788127900483], [88.1874317789566, 27.91469829637207], [88.18725211589978, 27.91469829637207], [88.18725211589978, 27.91460846484366], [88.18689278978613, 27.91460846484366], [88.18689278978613, 27.91469829637207], [88.1867131267293, 27.91469829637207], [88.1867131267293, 27.914788127900483], [88.18635380061566, 27.914788127900483], [88.18635380061566, 27.91469829637207], [88.18617413755884, 27.91469829637207], [88.18617413755884, 27.91460846484366], [88.18491649616107, 27.91460846484366], [88.18491649616107, 27.914518633315247], [88.18482666463265, 27.914518633315247], [88.18482666463265, 27.914338970258424], [88.18464700157583, 27.914338970258424], [88.18464700157583, 27.91424913873001], [88.184467338519, 27.91424913873001], [88.184467338519, 27.914338970258424], [88.18401818087695, 27.914338970258424], [88.18401818087695, 27.91424913873001], [88.18356902323488, 27.91424913873001], [88.18356902323488, 27.914159307201597], [88.18329952864966, 27.914159307201597], [88.18329952864966, 27.914069475673188], [88.182940202536, 27.914069475673188], [88.182940202536, 27.913979644144774], [88.18276053947918, 27.913979644144774], [88.18276053947918, 27.91388981261636], [88.18258087642235, 27.91388981261636], [88.18258087642235, 27.91379998108795], [88.1821317187803, 27.91379998108795], [88.1821317187803, 27.913710149559538], [88.181413066553, 27.913710149559538], [88.181413066553, 27.91362031803113], [88.18123340349618, 27.91362031803113], [88.18123340349618, 27.913530486502715], [88.18105374043935, 27.913530486502715], [88.18105374043935, 27.913440654974302], [88.18096390891094, 27.913440654974302], [88.18096390891094, 27.913171160389066], [88.18105374043935, 27.913171160389066], [88.18105374043935, 27.912991497332243], [88.18114357196777, 27.912991497332243], [88.18114357196777, 27.910296551479885], [88.18123340349618, 27.910296551479885], [88.18123340349618, 27.91011688842306], [88.18132323502459, 27.91011688842306], [88.18132323502459, 27.91002705689465], [88.181413066553, 27.91002705689465], [88.181413066553, 27.909937225366235], [88.1815028980814, 27.909937225366235], [88.1815028980814, 27.909757562309412], [88.18159272960982, 27.909757562309412], [88.18159272960982, 27.909667730781003], [88.18168256113823, 27.909667730781003], [88.18168256113823, 27.90957789925259], [88.18177239266664, 27.90957789925259], [88.18177239266664, 27.909488067724176], [88.18195205572347, 27.909488067724176], [88.18195205572347, 27.909308404667353], [88.18204188725188, 27.909308404667353], [88.18204188725188, 27.908949078553704], [88.1821317187803, 27.908949078553704], [88.1821317187803, 27.90876941549688], [88.18222155030871, 27.90876941549688], [88.18222155030871, 27.908410089383235], [88.18231138183712, 27.908410089383235], [88.18231138183712, 27.907960931741172], [88.18222155030871, 27.907960931741172], [88.18222155030871, 27.90733211104229], [88.18231138183712, 27.90733211104229], [88.18231138183712, 27.907242279513877], [88.18222155030871, 27.907242279513877], [88.18222155030871, 27.907152447985467], [88.18231138183712, 27.907152447985467], [88.18231138183712, 27.907062616457054], [88.18240121336554, 27.907062616457054], [88.18240121336554, 27.907152447985467], [88.18258087642235, 27.907152447985467], [88.18258087642235, 27.907242279513877], [88.18267070795076, 27.907242279513877], [88.18267070795076, 27.907152447985467], [88.18285037100759, 27.907152447985467], [88.18285037100759, 27.907242279513877], [88.182940202536, 27.907242279513877], [88.182940202536, 27.90733211104229], [88.18311986559283, 27.90733211104229], [88.18311986559283, 27.907421942570704], [88.18320969712124, 27.907421942570704], [88.18320969712124, 27.907511774099113], [88.18338936017807, 27.907511774099113], [88.18338936017807, 27.907601605627526], [88.18392834934853, 27.907601605627526], [88.18392834934853, 27.90769143715594], [88.18401818087695, 27.90769143715594], [88.18401818087695, 27.907871100212763], [88.18410801240536, 27.907871100212763], [88.18410801240536, 27.907960931741172], [88.18419784393377, 27.907960931741172], [88.18419784393377, 27.908050763269586], [88.18428767546219, 27.908050763269586], [88.18428767546219, 27.908140594798], [88.184467338519, 27.908140594798], [88.184467338519, 27.90823042632641], [88.18581481144518, 27.90823042632641], [88.18581481144518, 27.908140594798], [88.18599447450201, 27.908140594798], [88.18599447450201, 27.908050763269586], [88.18608430603042, 27.908050763269586], [88.18608430603042, 27.907960931741172], [88.18617413755884, 27.907960931741172], [88.18617413755884, 27.908050763269586], [88.18626396908725, 27.908050763269586], [88.18626396908725, 27.908140594798], [88.18644363214406, 27.908140594798], [88.18644363214406, 27.90823042632641], [88.18698262131454, 27.90823042632641], [88.18698262131454, 27.90832025785482], [88.18707245284295, 27.90832025785482], [88.18707245284295, 27.908410089383235], [88.18725211589978, 27.908410089383235], [88.18725211589978, 27.908499920911645], [88.18868942035436, 27.908499920911645], [88.18868942035436, 27.908589752440058], [88.18886908341119, 27.908589752440058], [88.18886908341119, 27.90867958396847], [88.1889589149396, 27.90867958396847], [88.1889589149396, 27.908589752440058], [88.18913857799643, 27.908589752440058], [88.18913857799643, 27.908499920911645], [88.18922840952484, 27.908499920911645], [88.18922840952484, 27.908589752440058], [88.18931824105326, 27.908589752440058], [88.18931824105326, 27.90867958396847], [88.18949790411007, 27.90867958396847], [88.18949790411007, 27.90876941549688], [88.19003689328055, 27.90876941549688], [88.19003689328055, 27.908859247025294], [88.19012672480896, 27.908859247025294], [88.19012672480896, 27.908949078553704], [88.19030638786579, 27.908949078553704], [88.19030638786579, 27.909038910082117], [88.19084537703625, 27.909038910082117], [88.19084537703625, 27.90912874161053], [88.1911148716215, 27.90912874161053], [88.1911148716215, 27.909038910082117], [88.19129453467832, 27.909038910082117], [88.19129453467832, 27.908859247025294], [88.19138436620672, 27.908859247025294], [88.19138436620672, 27.90876941549688], [88.19147419773513, 27.90876941549688], [88.19147419773513, 27.908859247025294], [88.19156402926355, 27.908859247025294], [88.19156402926355, 27.908949078553704], [88.19174369232037, 27.908949078553704], [88.19174369232037, 27.909038910082117], [88.19228268149085, 27.909038910082117], [88.19228268149085, 27.90912874161053], [88.19246234454766, 27.90912874161053], [88.19246234454766, 27.90921857313894], [88.19255217607608, 27.90921857313894], [88.19255217607608, 27.90912874161053], [88.1927318391329, 27.90912874161053], [88.1927318391329, 27.909038910082117], [88.19309116524656, 27.909038910082117], [88.19309116524656, 27.90912874161053], [88.19318099677497, 27.90912874161053], [88.19318099677497, 27.90921857313894], [88.19336065983178, 27.90921857313894], [88.19336065983178, 27.909308404667353], [88.19389964900226, 27.909308404667353], [88.19389964900226, 27.909398236195766], [88.19398948053067, 27.909398236195766], [88.19398948053067, 27.909488067724176], [88.1941691435875, 27.909488067724176], [88.1941691435875, 27.90957789925259], [88.19533695345685, 27.90957789925259], [88.19533695345685, 27.909667730781003], [88.19551661651367, 27.909667730781003], [88.19551661651367, 27.909757562309412], [88.19560644804208, 27.909757562309412], [88.19560644804208, 27.909667730781003], [88.19578611109891, 27.909667730781003], [88.19578611109891, 27.90957789925259], [88.19686408943986, 27.90957789925259], [88.19686408943986, 27.909488067724176], [88.19704375249668, 27.909488067724176], [88.19704375249668, 27.909398236195766], [88.1971335840251, 27.909398236195766], [88.1971335840251, 27.909308404667353], [88.19758274166715, 27.909308404667353], [88.19758274166715, 27.909398236195766], [88.19767257319556, 27.909398236195766], [88.19767257319556, 27.909488067724176], [88.19785223625239, 27.909488067724176], [88.19785223625239, 27.90957789925259], [88.19919970917857, 27.90957789925259], [88.19919970917857, 27.909667730781003], [88.1994692037638, 27.909667730781003], [88.1994692037638, 27.909757562309412], [88.20000819293428, 27.909757562309412], [88.20000819293428, 27.909847393837826], [88.2001878559911, 27.909847393837826], [88.2001878559911, 27.909937225366235], [88.20036751904792, 27.909937225366235], [88.20036751904792, 27.909847393837826], [88.20054718210474, 27.909847393837826], [88.20054718210474, 27.909937225366235], [88.20072684516157, 27.909937225366235], [88.20072684516157, 27.91002705689465], [88.20099633974681, 27.91002705689465], [88.20099633974681, 27.91011688842306], [88.20117600280363, 27.91011688842306], [88.20117600280363, 27.91020671995147], [88.20126583433203, 27.91020671995147], [88.20126583433203, 27.910296551479885], [88.20144549738886, 27.910296551479885], [88.20144549738886, 27.910386383008298], [88.2017149919741, 27.910386383008298], [88.2017149919741, 27.910476214536708], [88.20180482350251, 27.910476214536708], [88.20180482350251, 27.91056604606512], [88.20198448655934, 27.91056604606512], [88.20198448655934, 27.910655877593534], [88.20225398114457, 27.910655877593534], [88.20225398114457, 27.910745709121944], [88.20234381267298, 27.910745709121944], [88.20234381267298, 27.910925372178767], [88.2025234757298, 27.910925372178767], [88.2025234757298, 27.91101520370718], [88.20279297031504, 27.91101520370718], [88.20279297031504, 27.911105035235593], [88.20288280184346, 27.911105035235593], [88.20288280184346, 27.911284698292416], [88.20306246490028, 27.911284698292416], [88.20306246490028, 27.91137452982083], [88.2031522964287, 27.91137452982083], [88.2031522964287, 27.91146436134924], [88.20333195948551, 27.91146436134924], [88.20333195948551, 27.911554192877652], [88.2039607801844, 27.911554192877652], [88.2039607801844, 27.911644024406066], [88.20405061171282, 27.911644024406066], [88.20405061171282, 27.911733855934475], [88.20423027476963, 27.911733855934475], [88.20423027476963, 27.91182368746289], [88.20449976935487, 27.91182368746289], [88.20449976935487, 27.911913518991298], [88.20458960088328, 27.911913518991298], [88.20458960088328, 27.912093182048125], [88.20476926394011, 27.912093182048125], [88.20476926394011, 27.912183013576534], [88.20485909546852, 27.912183013576534], [88.20485909546852, 27.912272845104948], [88.20503875852535, 27.912272845104948], [88.20503875852535, 27.91236267663336], [88.20530825311057, 27.91236267663336], [88.20530825311057, 27.91245250816177], [88.20539808463899, 27.91245250816177], [88.20539808463899, 27.912632171218597], [88.20557774769581, 27.912632171218597], [88.20557774769581, 27.912722002747007], [88.20566757922423, 27.912722002747007], [88.20566757922423, 27.91281183427542], [88.20584724228105, 27.91281183427542], [88.20584724228105, 27.91290166580383], [88.20611673686629, 27.91290166580383], [88.20611673686629, 27.912991497332243], [88.20620656839469, 27.912991497332243], [88.20620656839469, 27.913081328860656], [88.20638623145152, 27.913081328860656], [88.20638623145152, 27.913171160389066], [88.20683538909358, 27.913171160389066], [88.20683538909358, 27.91326099191748], [88.206925220622, 27.91326099191748], [88.206925220622, 27.913440654974302], [88.20710488367882, 27.913440654974302], [88.20710488367882, 27.913530486502715], [88.20737437826405, 27.913530486502715], [88.20737437826405, 27.91362031803113], [88.20746420979246, 27.91362031803113], [88.20746420979246, 27.913710149559538], [88.20764387284929, 27.913710149559538], [88.20764387284929, 27.91379998108795], [88.2077337043777, 27.91379998108795], [88.2077337043777, 27.91388981261636], [88.20782353590612, 27.91388981261636], [88.20782353590612, 27.913979644144774], [88.20800319896294, 27.913979644144774], [88.20800319896294, 27.914069475673188], [88.20818286201975, 27.914069475673188], [88.20818286201975, 27.914159307201597], [88.20827269354817, 27.914159307201597], [88.20827269354817, 27.914338970258424], [88.20836252507658, 27.914338970258424], [88.20836252507658, 27.914428801786833], [88.208452356605, 27.914428801786833], [88.208452356605, 27.914518633315247], [88.2085421881334, 27.914518633315247], [88.2085421881334, 27.91460846484366], [88.20863201966182, 27.91460846484366], [88.20863201966182, 27.91469829637207], [88.20872185119023, 27.91469829637207], [88.20872185119023, 27.914788127900483], [88.20881168271865, 27.914788127900483], [88.20881168271865, 27.914877959428892], [88.20890151424706, 27.914877959428892], [88.20890151424706, 27.914967790957306], [88.20899134577547, 27.914967790957306], [88.20899134577547, 27.91505762248572], [88.20908117730389, 27.91505762248572], [88.20908117730389, 27.91514745401413], [88.20917100883229, 27.91514745401413], [88.20917100883229, 27.915237285542542], [88.2092608403607, 27.915237285542542], [88.2092608403607, 27.915327117070955], [88.20935067188911, 27.915327117070955], [88.20935067188911, 27.91559661165619], [88.20944050341753, 27.91559661165619], [88.20944050341753, 27.9156864431846], [88.20935067188911, 27.9156864431846], [88.20935067188911, 27.915866106241424], [88.20944050341753, 27.915866106241424], [88.20944050341753, 27.91604576929825], [88.20935067188911, 27.91604576929825], [88.20935067188911, 27.916225432355073], [88.20944050341753, 27.916225432355073], [88.20944050341753, 27.916405095411896], [88.20935067188911, 27.916405095411896], [88.20935067188911, 27.91649492694031], [88.20881168271865, 27.91649492694031]]]]}}]}