{"type": "FeatureCollection", "features": [{"type": "Feature", "properties": {"name": "South Lhonak Lake measurement basin (outline + 150 m)", "area_km2": 2.714}, "geometry": {"type": "Polygon", "coordinates": [[[88.20300193422474, 27.91685103298888], [88.20290254572886, 27.916908574703474], [88.20280907850272, 27.916933846739205], [88.20272116442388, 27.916971597598735], [88.2026040405478, 27.91698928544448], [88.20249041862007, 27.917020006687014], [88.20239268284034, 27.917021204055597], [88.20229633462085, 27.917035754163297], [88.20225398843301, 27.917036273077315], [88.20108616398677, 27.917036273077308], [88.20098939632821, 27.917024088614742], [88.20089166054109, 27.917025285748174], [88.20077711848836, 27.91699735948559], [88.20065948471213, 27.916982547391452], [88.20057042009469, 27.916946964498614], [88.20047619594571, 27.916923991658535], [88.20037504044187, 27.916868906582618], [88.20030509200969, 27.916840960748917], [88.20029379204223, 27.916844016077054], [88.20020587483482, 27.91688176788843], [88.20008875426399, 27.9168994547806], [88.19997513562814, 27.9169301751586], [88.19987739657944, 27.916931372568232], [88.19978104506494, 27.916945922799687], [88.1997386989097, 27.916946441548912], [88.19964886626002, 27.916946441548912], [88.1995600594346, 27.91693525981759], [88.19954418777648, 27.916935454219768], [88.19953989062147, 27.91693440654033], [88.19945435624808, 27.91693545421977], [88.19933981751389, 27.916907528743078], [88.19922218707205, 27.91689271752357], [88.19913311929835, 27.916857133757663], [88.19903889199783, 27.916834160130133], [88.19893773942472, 27.91677907660441], [88.19882947278091, 27.91673582230948], [88.19875519819283, 27.916679671837837], [88.19871039760498, 27.91665527513721], [88.19867682360857, 27.91666435302024], [88.1985889065472, 27.916702104831618], [88.19847178617094, 27.916719791723796], [88.19835816772388, 27.916750512101782], [88.19826042883759, 27.916751709511413], [88.19816407748316, 27.91676625974287], [88.19812173139826, 27.91676677849209], [88.19803189874848, 27.91676677849209], [88.19794309208392, 27.91675559676244], [88.19792722058823, 27.91675579116295], [88.19792292343318, 27.91675474348176], [88.19783738905983, 27.91675579116295], [88.19772285051593, 27.916727865686248], [88.19762773418678, 27.916715889277732], [88.19752220803947, 27.916761202809916], [88.19742282195695, 27.916818743175067], [88.19732935213862, 27.916844015932682], [88.19724143546479, 27.916881767585423], [88.19718487783513, 27.916890308652512], [88.1971533279105, 27.916908574703474], [88.19705985774755, 27.916933847533276], [88.19697194073386, 27.916971599265338], [88.19685481979839, 27.916989286236976], [88.19674120080171, 27.917020006687014], [88.196643461951, 27.917021204093217], [88.19654711063772, 27.91703575431437], [88.19650476444751, 27.917036273077326], [88.1963250991481, 27.917036273077326], [88.19622832839333, 27.917024088577133], [88.19613058953524, 27.91702528574818], [88.19601605043728, 27.916997360205997], [88.19589841962798, 27.9169825489136], [88.19580935204947, 27.916946965220447], [88.19580720503416, 27.916946441756316], [88.19569627564599, 27.91694644154891], [88.19559950637897, 27.91693425706582], [88.19550176899796, 27.916935454219768], [88.19538722865208, 27.916907528350134], [88.1952695965919, 27.916892716693315], [88.19518053043333, 27.916857133363937], [88.19517838614334, 27.916856610563837], [88.19488779076897, 27.916856610020496], [88.1947910221453, 27.916844425544248], [88.19469328540382, 27.91684562269136], [88.19457874461585, 27.916817696690742], [88.19446111211398, 27.916802884888153], [88.19437204656776, 27.916767301704287], [88.19432097494273, 27.916754849892595], [88.19424412792334, 27.916755791162952], [88.19412958830499, 27.916727865424292], [88.1940119569797, 27.916713053913252], [88.19392289043073, 27.916677470438362], [88.19382866436337, 27.916654497073317], [88.1937275110094, 27.916599413030877], [88.19369673007091, 27.91658711548612], [88.19309116132209, 27.916587115435266], [88.19301441075473, 27.916577451535062], [88.19295385380873, 27.916586596562446], [88.19291150779613, 27.91658711543526], [88.19201318129923, 27.91658711543526], [88.19191641319814, 27.916574930962426], [88.19181867697941, 27.91657612810612], [88.19170413620832, 27.916548202040023], [88.1915865037299, 27.91653339016456], [88.19149743867479, 27.916497807053442], [88.1914032141097, 27.9164748340165], [88.19130205973774, 27.916419749328167], [88.1912712849361, 27.91640745415469], [88.19092197874055, 27.916407454108676], [88.19086339767593, 27.916432609185843], [88.19074627572029, 27.916450296634245], [88.19063265569122, 27.916481017516542], [88.1905349190027, 27.91648221490222], [88.19043856985715, 27.916496765061495], [88.19039622387929, 27.91649728390685], [88.18967756268181, 27.91649728390685], [88.18958079409815, 27.916485099427177], [88.18948305740226, 27.91648629657771], [88.18936851726359, 27.9164583706426], [88.1892508854223, 27.916443558912903], [88.18916181990281, 27.916407975656277], [88.18906759487768, 27.916385002488095], [88.18896644106418, 27.91632991805812], [88.18885817321848, 27.916286662807337], [88.1887839005872, 27.91623051328979], [88.18877889960211, 27.91622778993297], [88.18850975169124, 27.916227789321617], [88.18841298391166, 27.916215604848784], [88.18831524801764, 27.91621680199248], [88.18820070762722, 27.916188875926395], [88.1880830755397, 27.916174064050946], [88.1879940107805, 27.91613848093983], [88.1879918693786, 27.916137958840412], [88.18743177222906, 27.916137957793197], [88.18733500509282, 27.91612577332721], [88.18723726983829, 27.916126970464074], [88.18712272900575, 27.916099044267], [88.18706172915593, 27.916091363317275], [88.18694956224068, 27.9161216914029], [88.18685182476024, 27.916122888802263], [88.18675547480983, 27.91613743900279], [88.18671312897182, 27.916137957793204], [88.18635379837315, 27.916137957793204], [88.1862570289852, 27.91612577329985], [88.18615929149735, 27.916126970464067], [88.1860447528137, 27.91609904479092], [88.18592712244214, 27.91608423335277], [88.18583805614188, 27.916048649805127], [88.18574383035329, 27.916025676374474], [88.18564267782476, 27.915970592461225], [88.18561190011745, 27.915958296147924], [88.18491648831233, 27.91595829473637], [88.18481972189974, 27.915946110277222], [88.18472198736592, 27.915947307407247], [88.1846074461865, 27.915919381079203], [88.18448981331335, 27.91590456891224], [88.1844007498528, 27.915868986092136], [88.18430652691208, 27.91584601331766], [88.18420537217948, 27.915790928112642], [88.18409710345784, 27.915747672042595], [88.18402283260949, 27.9156915233428], [88.1840177278541, 27.91568874346255], [88.18392140936925, 27.91567661566121], [88.18382367256652, 27.915677812822008], [88.18370913409004, 27.91564988708338], [88.18359150393736, 27.915635075572364], [88.18350243827615, 27.91559949209747], [88.18345136589377, 27.91558703996667], [88.18337451508603, 27.915587981293598], [88.18325997670465, 27.915560055554966], [88.18314234664972, 27.915545244043948], [88.18305328106251, 27.915509660569064], [88.18295905601265, 27.915486687204023], [88.1829102797577, 27.91546012534953], [88.18287285349554, 27.915455412792276], [88.18278378744394, 27.915419829171878], [88.18268956193413, 27.915396855675617], [88.18268216968727, 27.91539283011331], [88.18263115678783, 27.915380392563634], [88.18251352719801, 27.915365581125503], [88.18242446148959, 27.915329997577867], [88.18233023632715, 27.915307024147214], [88.18222908447083, 27.91525194023399], [88.18212081864813, 27.915208685529457], [88.18208441626834, 27.915181165440085], [88.18204942247918, 27.915162108963962], [88.1819895354486, 27.915138182749395], [88.18193721143932, 27.915138823651542], [88.1818226735337, 27.91511089791293], [88.18170504396733, 27.915096086401917], [88.18161597875, 27.915060502927023], [88.18161383326809, 27.91505997982763], [88.18141306206819, 27.91505997945226], [88.1813162947706, 27.915047794972587], [88.18121855937359, 27.915048992123133], [88.18110402075733, 27.91502106618806], [88.1809863904796, 27.91500625445841], [88.18089732614374, 27.91497067120177], [88.18080310237086, 27.914947698033586], [88.18070194990185, 27.9148926136037], [88.18059368349519, 27.914849358353003], [88.18055728331322, 27.914821839751966], [88.18052228885894, 27.91480278285033], [88.18041402395775, 27.91475952841891], [88.18037762338128, 27.914732009619435], [88.18034262639281, 27.91471295132193], [88.18023436158153, 27.914669696890495], [88.18016008864794, 27.914613546555188], [88.18007687564887, 27.91456823102656], [88.17999716250252, 27.914490374051], [88.17990687942209, 27.914422119651398], [88.17986989769054, 27.91437224219106], [88.17981704921661, 27.91433228849493], [88.17976348121327, 27.914260041020285], [88.17969790416669, 27.914195990570327], [88.17964597408408, 27.914101558067667], [88.17958085945602, 27.914013737123245], [88.179552260486, 27.913931143668382], [88.17950953943458, 27.913853456959735], [88.17948952561393, 27.91374996570811], [88.17945476213569, 27.913649568703388], [88.17945340846161, 27.913563203792755], [88.17943694380318, 27.913478064771823], [88.17943635730542, 27.91344064655075], [88.17943636111178, 27.91317115196561], [88.17945015102268, 27.913085642166514], [88.17944879735161, 27.912999276762488], [88.17948040047834, 27.91289806796875], [88.1794971626273, 27.91279412708333], [88.17953743208552, 27.912715424145485], [88.17956343112732, 27.912632161955475], [88.1796160328462, 27.912556738696043], [88.17961606476652, 27.91029654305745], [88.17962985431078, 27.91021103325838], [88.17962850067553, 27.910124667854415], [88.17966010296217, 27.910023459060586], [88.1796768646655, 27.909919518175087], [88.17971713305333, 27.90984081523724], [88.17974313140401, 27.90975755304725], [88.17979761665855, 27.90967942699111], [88.179806966951, 27.909661152180465], [88.17983296525851, 27.909577889990445], [88.17989529928643, 27.909488509469085], [88.17994424694685, 27.909392842577994], [88.18000778850045, 27.909327211175768], [88.18005906905803, 27.90925367979004], [88.18010228891569, 27.909219126192067], [88.18010246449576, 27.909218563876962], [88.18016479831661, 27.909129183355557], [88.18021374581444, 27.909033516464433], [88.18027728715691, 27.908967885062225], [88.18032856754412, 27.90889435367651], [88.18039000953583, 27.90884523159446], [88.18041840004778, 27.908804522148085], [88.18047984215704, 27.908755399931287], [88.18050823255145, 27.908714690619664], [88.18055870204486, 27.90867434084711], [88.18057519822015, 27.908572045249354], [88.1806154661063, 27.908493342311488], [88.18064146413306, 27.90841008012147], [88.18069595291016, 27.90833194804099], [88.18070530000381, 27.90831367925471], [88.18070757418728, 27.90830639586838], [88.18070650543854, 27.90823820575838], [88.18072056203573, 27.90819318764589], [88.18071247998742, 27.908169845472223], [88.18071112638165, 27.908083480561547], [88.18069466255704, 27.907998341540633], [88.18069407608886, 27.907960923319568], [88.18069408496778, 27.907332102620906], [88.18069896097994, 27.90730186536091], [88.18069467270048, 27.907279689313594], [88.18069408623619, 27.90724227109252], [88.18069408750458, 27.907152439564154], [88.18070659229747, 27.907074894337047], [88.18070652179375, 27.90707039588945], [88.18070786361908, 27.907066098471592], [88.1807065230518, 27.906980564361145], [88.18073812441975, 27.906879355567256], [88.18075488563571, 27.906775414681707], [88.18079515285302, 27.90669671174382], [88.18082115044791, 27.906613449553813], [88.18088348276756, 27.906524069032336], [88.1809324290865, 27.90642840214115], [88.18099596889873, 27.906362770738884], [88.18104724805093, 27.906289239353132], [88.18110869345244, 27.906240113361857], [88.18113708055445, 27.90619940782471], [88.18121250711185, 27.90613910374983], [88.18121258458089, 27.906139023730166], [88.18121266658403, 27.906138976250563], [88.18122518191521, 27.906128970142817], [88.18130241694712, 27.90604919220176], [88.18138417144334, 27.906001856479012], [88.18145665017363, 27.905943908874214], [88.18156350775796, 27.905898020725157], [88.18166288361695, 27.905840481901674], [88.18175634527577, 27.905815209667505], [88.1818442543786, 27.905777458346307], [88.18196136250593, 27.905759772303966], [88.1820749690421, 27.905729052551084], [88.18217269853076, 27.905727855399306], [88.1822690406393, 27.90571330527314], [88.18231138239753, 27.905712786564322], [88.18240121280513, 27.90571278656433], [88.18249000886972, 27.905723967984], [88.18250587224831, 27.90572377362036], [88.18251017018659, 27.90572482158624], [88.18259570377673, 27.90572377362036], [88.18271023026125, 27.90575169854973], [88.18282784814879, 27.905766508998756], [88.18291690763836, 27.905802092304178], [88.18296798774801, 27.90581454701607], [88.18304486158027, 27.905813605148772], [88.18315938789134, 27.905841530012662], [88.18327700560694, 27.90585634038883], [88.18336606543961, 27.905891923767008], [88.1834602842542, 27.905914896825617], [88.18356142662886, 27.90596997899918], [88.18366968240124, 27.906013231688366], [88.18374395126044, 27.906069381650287], [88.18382715945559, 27.90611469657293], [88.18388509618997, 27.906171286722017], [88.1839391783471, 27.90619289474516], [88.18401344732966, 27.90624904470709], [88.18404048947922, 27.906263771762283], [88.18412284072869, 27.906262762790824], [88.18423736644115, 27.90629068739282], [88.18435498356659, 27.906305497477533], [88.18444404484539, 27.906341081146643], [88.18453826512736, 27.906364054467648], [88.18463940697335, 27.906419136124597], [88.18474766225177, 27.90646238826773], [88.18482193236093, 27.9065185387747], [88.18490514185197, 27.90656385421493], [88.18498484912539, 27.90664170855996], [88.18507512563549, 27.90670996000901], [88.18511210182015, 27.906759831130184], [88.18516495996725, 27.906799793396612], [88.18520875600547, 27.906858862882856], [88.18522956726959, 27.906842224158222], [88.18533642574118, 27.906796336009204], [88.18543580242537, 27.906738797185735], [88.18552926486029, 27.906713524951574], [88.1856171746931, 27.90667577363039], [88.1857342837928, 27.90665808758808], [88.18584789127233, 27.906627367835203], [88.18594562157253, 27.906626170683428], [88.18604196448105, 27.906611620557264], [88.18608430659086, 27.906611101848448], [88.18617413699836, 27.906611101848448], [88.18626293386643, 27.906622283276448], [88.18627879805658, 27.906622088904474], [88.18628309599487, 27.906623136861658], [88.18636862958498, 27.906622088904474], [88.18648315702043, 27.906650013833826], [88.18660077588463, 27.906664824282835], [88.18668983611377, 27.906700407588268], [88.18678405536347, 27.90672338058127], [88.18688519873115, 27.90677846288396], [88.18699345554839, 27.906821715709615], [88.18706772472726, 27.906877865535275], [88.18709476669318, 27.906892592404855], [88.1871771138252, 27.906891583489703], [88.18729164020331, 27.906919508091683], [88.1874092580124, 27.90693431817638], [88.1874983198089, 27.906969901845486], [88.18759254063858, 27.90699287516649], [88.18769368307245, 27.907047956823423], [88.18780193898009, 27.90709120896652], [88.187876209521, 27.907147359473488], [88.18788122865625, 27.907150092854096], [88.1886894113869, 27.90715009101895], [88.1887861783835, 27.907162275513056], [88.18888391334953, 27.90716107807493], [88.18890540098383, 27.90716631733163], [88.18899989284759, 27.907165159853893], [88.18909623623615, 27.90715060972773], [88.18913857855694, 27.907150091018917], [88.18922840896442, 27.907150091018924], [88.18931720631451, 27.907161272451916], [88.18933307099161, 27.90716107807493], [88.18933736892991, 27.907162126026904], [88.18942290252001, 27.90716107807494], [88.18953743052609, 27.90718900300429], [88.18965504997632, 27.907203813453307], [88.18974411064917, 27.907239396758726], [88.18983833036829, 27.907262369751717], [88.18993947423989, 27.907317452054407], [88.19004773159656, 27.907360704880066], [88.19012200114545, 27.9074168547057], [88.19014904315756, 27.90743158152705], [88.19023138676023, 27.907430572660175], [88.19034591370894, 27.907458497262148], [88.19046353210398, 27.907473307346823], [88.19055259434425, 27.907508891015926], [88.19064681564342, 27.90753186433694], [88.19070642069828, 27.907564324801744], [88.19073585775507, 27.9075472809414], [88.19082932088848, 27.90752200870725], [88.19091723137832, 27.90748425738607], [88.19103434135323, 27.907466571343768], [88.19114794968179, 27.9074358515909], [88.1912456807124, 27.907434654439125], [88.19134202434093, 27.907420104312976], [88.1913843667672, 27.907419585604156], [88.19147419717467, 27.907419585604163], [88.19156299476583, 27.907430767039653], [88.1915788596864, 27.907430572660168], [88.19158315762472, 27.907431620609536], [88.19166869121482, 27.907430572660168], [88.19178321950618, 27.907458497589523], [88.19190083924941, 27.907473308038522], [88.19198990014416, 27.907508891343944], [88.192084120098, 27.90753186433693], [88.19218526422156, 27.907586946639608], [88.19229352184792, 27.907630199465252], [88.19236779158184, 27.907686349290902], [88.19239483361709, 27.907701076088156], [88.19247717545505, 27.9077000672454], [88.19249866308938, 27.907705306475993], [88.19259315413036, 27.90770414901411], [88.1926894988424, 27.90768959885702], [88.1927318413748, 27.907689080189396], [88.19309116300465, 27.907689080189392], [88.19318792710679, 27.907701264642498], [88.19328565921077, 27.907700067245404], [88.19340018698185, 27.907727991978323], [88.19351780620917, 27.907742802208723], [88.1936068681331, 27.907778385732353], [88.1937010891289, 27.907801358922153], [88.19380223279295, 27.90785644083736], [88.19391048998136, 27.907899693253437], [88.19398476060658, 27.90795584348789], [88.19401180337779, 27.907970570649262], [88.194094143451, 27.907969561830644], [88.1942086709703, 27.9079974864326], [88.19432628995136, 27.908012296517267], [88.19441535263542, 27.908047880186377], [88.19450957440405, 27.908070853507375], [88.19461071784579, 27.90812593516427], [88.19471897483214, 27.908169187307298], [88.19479324611318, 27.908225337814258], [88.19479826417515, 27.908228070583117], [88.19533694617047, 27.908228069359883], [88.19543371328731, 27.908240253843747], [88.19553144839011, 27.90823905641588], [88.19555293602446, 27.90824429562037], [88.19564742763814, 27.908243138157236], [88.19574377507972, 27.908228587917662], [88.19578611782481, 27.908228069359875], [88.19623083806411, 27.908228070376385], [88.19627883647567, 27.908189695975597], [88.19638569535232, 27.908143808395607], [88.19648507234227, 27.908086270111834], [88.19657853700899, 27.90806099758902], [88.19666644900376, 27.908023245950623], [88.1967835584932, 27.908005560226105], [88.19689716632224, 27.90797484076137], [88.19699489895613, 27.90797364359593], [88.19709124418944, 27.907959093428524], [88.19713358682752, 27.907958574774636], [88.19758273886472, 27.90795857477463], [88.19767950348933, 27.90797075923115], [88.19777723611588, 27.907969561830637], [88.19789176390374, 27.90799748649808], [88.19800938315443, 27.908012296655613], [88.19809844556934, 27.90804788025197], [88.19819266706894, 27.908070853507372], [88.19829381074781, 27.908125935293423], [88.19840206797005, 27.908169187572966], [88.19847633901571, 27.908225337943673], [88.19848135758917, 27.908228070991097], [88.19919970077119, 27.908228069359883], [88.19929646845084, 27.908240253850586], [88.19939420411184, 27.90823905641588], [88.19950872949956, 27.90826698042854], [88.19962634634685, 27.908281789857412], [88.19971541167479, 27.908317374181145], [88.19980963609984, 27.908340348092594], [88.19985840817625, 27.9083669088036], [88.1998958477446, 27.90837162304593], [88.19998490991713, 27.90840720649681], [88.19998706706753, 27.90840773245617], [88.20000818957132, 27.90840773241669], [88.20010495487912, 27.908419916876632], [88.20020268819059, 27.9084187194727], [88.20031721618543, 27.90844664407465], [88.2004348356548, 27.908461454159305], [88.20052389870865, 27.908497037828408], [88.20052605655569, 27.908497563957194], [88.2005471809838, 27.9084975639451], [88.2006439452464, 27.908509748391374], [88.20074167752256, 27.908508551001116], [88.2008562066867, 27.908536475864985], [88.20097382733236, 27.908551286241106], [88.20106288938369, 27.908586869619242], [88.20115711054555, 27.908609842677823], [88.2012582554399, 27.90866492485133], [88.20136651390915, 27.908708177540426], [88.20139136861383, 27.908726968144972], [88.20142298514477, 27.90873094915956], [88.20151204761318, 27.908766532610443], [88.20160626920064, 27.908789505734628], [88.20170741402579, 27.90884458777896], [88.20181567243894, 27.908887840331513], [88.2018520566604, 27.90891534738863], [88.2018870779103, 27.908934419436527], [88.20199533664923, 27.908977672125598], [88.20206960754376, 27.909033822087487], [88.20215281801923, 27.909079137010092], [88.20217985329998, 27.909105543214356], [88.20223070155355, 27.90912585872407], [88.20232492345399, 27.909148831848253], [88.20242606861511, 27.909203913892565], [88.20253432738788, 27.909247166445112], [88.2026085987029, 27.909303316543276], [88.20269180962332, 27.90934863159529], [88.20271884590097, 27.909375038707466], [88.20276969200886, 27.9093953533093], [88.20286391414405, 27.909418326433478], [88.20296505955716, 27.909473408477787], [88.20307331859965, 27.909516661030317], [88.2031475900997, 27.909572811128484], [88.20323080122745, 27.90961812618049], [88.2033105113121, 27.909695981073014], [88.20340079092117, 27.909764233089795], [88.20341604732278, 27.909784809427066], [88.20350405108974, 27.9098327345914], [88.20361231049189, 27.90987598714393], [88.20368658223869, 27.90993213724209], [88.20376979364285, 27.909977452294083], [88.20384950399227, 27.910055307186582], [88.20393978390128, 27.910123559203367], [88.20397676420158, 27.91017343442118], [88.20402904518653, 27.910212959089424], [88.20405754345718, 27.91021654744829], [88.20415527867115, 27.91021535004093], [88.20426980829956, 27.91024327457735], [88.2043874294528, 27.91025808458909], [88.2044764942552, 27.91029366833094], [88.2045707182493, 27.910316641717547], [88.20467186355368, 27.910371723245174], [88.20478012255164, 27.910414975251555], [88.20485439561028, 27.910471125894812], [88.20493760837971, 27.910516441464473], [88.2049646489775, 27.91054285251107], [88.20501548578696, 27.910563163178608], [88.20510970893943, 27.91058613630277], [88.2052108554445, 27.910641218347035], [88.20531911565583, 27.910684470899525], [88.20539338795781, 27.910740620997686], [88.20547659998397, 27.910785936049678], [88.20555631092921, 27.910863790942145], [88.20564659151302, 27.910932042958876], [88.2056835729463, 27.91098191933188], [88.20573642473447, 27.91102187523108], [88.20578415075968, 27.911086242733116], [88.20582397211258, 27.911102152349077], [88.20591819573451, 27.911125125473216], [88.20601934274363, 27.911180207517457], [88.20612760349444, 27.91122346006994], [88.20620187616653, 27.911279610168094], [88.20628508860737, 27.91132492522007], [88.20636479994984, 27.911402780112518], [88.20645508098355, 27.911471032129235], [88.20649206317212, 27.911520909272326], [88.20654491420503, 27.911560864401412], [88.20659264197562, 27.91162523393662], [88.2066324584382, 27.911641141519492], [88.20672668252973, 27.911664114643653], [88.20682783004288, 27.911719196687876], [88.20693609133315, 27.911762449240328], [88.20701036437539, 27.911818599338467], [88.20704014781322, 27.91183481845348], [88.20714442236566, 27.911860242219692], [88.20726204581653, 27.911875052377134], [88.20735111141221, 27.9119106359735], [88.20744533627679, 27.911933609228875], [88.2075464835676, 27.911988691014763], [88.20765474465577, 27.912031943294124], [88.20772901835399, 27.912088093664842], [88.2078122318922, 27.912133408975663], [88.20789194345666, 27.912211263502932], [88.20798222479847, 27.912279515140938], [88.20799749050848, 27.912300103520664], [88.20808547557488, 27.912348017386716], [88.20819373749457, 27.912391269939146], [88.20826801096864, 27.91244742003728], [88.208351224308, 27.912492735089256], [88.20840917545883, 27.912549335982018], [88.20846323391399, 27.91257093326165], [88.208537507276, 27.912627083223498], [88.20862072051594, 27.912672398146054], [88.20870043303843, 27.912750253221024], [88.20879071538029, 27.912818505427], [88.2088004073872, 27.91283157669718], [88.20882256206929, 27.912840427846856], [88.20885896439735, 27.91286794760757], [88.20889396311155, 27.912887006686326], [88.20900222580664, 27.912930259375266], [88.20907649941543, 27.912986409337112], [88.20915971293184, 27.91303172425965], [88.20923942571918, 27.913109579334613], [88.209329708361, 27.91317783154058], [88.20936669271904, 27.913227710862294], [88.20941954121226, 27.91326766344084], [88.20947311065814, 27.913339910385616], [88.20953868902093, 27.913403960033673], [88.20959062078116, 27.913498391124605], [88.20965573705973, 27.913586210345066], [88.20966305637664, 27.913607346736924], [88.20968903960782, 27.91362698955442], [88.20972602437286, 27.913676869257777], [88.20977887208885, 27.913716821082826], [88.20981585697979, 27.91376670091456], [88.20986870456984, 27.913806652611203], [88.2099056895867, 27.91385653257133], [88.20995853705088, 27.913896484139627], [88.2099955221936, 27.913946364228053], [88.21004836953183, 27.913986315667962], [88.21008535480053, 27.91403619588482], [88.21013820201294, 27.914076147196422], [88.21017518740747, 27.914126027541588], [88.21022803449391, 27.914165978724757], [88.21026502001439, 27.91421585919835], [88.2103178669749, 27.914255810253138], [88.21035485262132, 27.9143056908551], [88.21040769945601, 27.914345641781598], [88.21044468522825, 27.914395522511843], [88.21049753193698, 27.914435473309915], [88.21055110196139, 27.9145077202547], [88.21061668103236, 27.91457176990275], [88.2106686133534, 27.914666200993615], [88.21073373033515, 27.914754020214012], [88.21076233188914, 27.91483661354508], [88.21080505563182, 27.91491429981349], [88.21082507237674, 27.91501779015643], [88.21085983898486, 27.915118185918786], [88.21085986925395, 27.91512011353452], [88.21089489078454, 27.91518379439863], [88.21091490757937, 27.9152872847416], [88.21094967427415, 27.915387680503965], [88.21095103046204, 27.91547404587756], [88.21096749790973, 27.915559185023742], [88.21096808547587, 27.915596603231865], [88.2109680867448, 27.915686434760243], [88.21095558327842, 27.915763979389183], [88.21095563592243, 27.91576733186805], [88.2109675017151, 27.915828679608886], [88.21096808928269, 27.915866097817005], [88.21096809182062, 27.91604576087377], [88.21095531744419, 27.916124985382], [88.210967506789, 27.916188005722407], [88.21096809435856, 27.916225423930534], [88.21096809689654, 27.916405086987286], [88.21095430904595, 27.916490596600667], [88.21095566524366, 27.916576961480803], [88.21092406378406, 27.91667817145398], [88.21090730379012, 27.91678211318398], [88.21086703515327, 27.916860816513424], [88.21084103748913, 27.916944078775316], [88.21077870120928, 27.91703346098887], [88.2107297521853, 27.917129129257173], [88.21066620793695, 27.917194761438235], [88.2106149255998, 27.917268293325787], [88.21055349396596, 27.917317405219244], [88.21052509683969, 27.917358122949796], [88.21044962710727, 27.917418457848935], [88.21044957437188, 27.91741851231674], [88.21044951855272, 27.917418544633676], [88.2104369865624, 27.917428563426032], [88.21035974368176, 27.917508343845128], [88.21027798296987, 27.917555679764344], [88.21020549903048, 27.917613627307624], [88.21009862892996, 27.91765951768911], [88.20999924132255, 27.91771705845913], [88.20990577152872, 27.917742331000177], [88.209817854925, 27.917780082414957], [88.20970073204448, 27.91779776970447], [88.20958711113242, 27.917828490442712], [88.20948937266769, 27.917829687835237], [88.2093930217591, 27.917844238015135], [88.20935067525315, 27.917844756833027], [88.20881167935465, 27.917844756833034], [88.2087149090023, 27.917832572346512], [88.20861717053019, 27.917833769503883], [88.20850262950135, 27.917805843699725], [88.20838499673363, 27.91779103211576], [88.20829592956598, 27.917755448713624], [88.2082017028285, 27.917732475414198], [88.20810054822893, 27.917677391242538], [88.20799227950592, 27.91763413626478], [88.20791800547825, 27.917577986474626], [88.20783479114891, 27.91753267146372], [88.2077809303749, 27.917480066331017], [88.2077347280377, 27.917474248983066], [88.20771885589245, 27.91747444339024], [88.20771455873741, 27.91747339571602], [88.20762902436402, 27.91747444339024], [88.20751448505891, 27.917446517913536], [88.20739685403065, 27.917431706694], [88.20730778581303, 27.91739612292809], [88.20721355804294, 27.917373149300566], [88.20711240496563, 27.917318065774825], [88.20708162398924, 27.91730576834475], [88.2067455519586, 27.917305767662555], [88.2066487832145, 27.917293583189732], [88.20655104634626, 27.917294780333417], [88.20643650481387, 27.91726685426729], [88.20631887155363, 27.917252042391805], [88.2062298059067, 27.917216459280702], [88.20613558071547, 27.91719348624376], [88.20603442567118, 27.917138401555373], [88.20592615654407, 27.91709514603143], [88.2058518838285, 27.91703899678649], [88.20584688365638, 27.91703627389274], [88.20548791000026, 27.917036273077322], [88.20539114177875, 27.917024088607906], [88.20529340543327, 27.91702528574818], [88.20517886391777, 27.91699735961658], [88.20506123068098, 27.916982547668216], [88.20497216552518, 27.91694696462986], [88.20487794083789, 27.91692399165854], [88.20482916285744, 27.916897429217425], [88.20479174075686, 27.916892717246803], [88.20470267352152, 27.9168571336264], [88.20460844675938, 27.916834160130126], [88.2045072937118, 27.916779076346042], [88.20443671657043, 27.916750879582146], [88.20436897779473, 27.916751709449844], [88.20427263150287, 27.916766259495642], [88.20423028542184, 27.916766778492057], [88.2031567881611, 27.91676678094656], [88.20310880514717, 27.916805141611487], [88.20300193422474, 27.91685103298888]]]}}]}